Satellite: NOAA-18
Catalog number: 28654
Epoch time:      06264.29330891
Element set:     643
Inclination:      098.7934 deg
RA of node:       205.5386 deg
Eccentricity:    0.0014053
Arg of perigee:   313.2448 deg
Mean anomaly:     046.7563 deg
Mean motion:   14.10992196 rev/day
Decay rate:       -8.3e-07 rev/day^2
Epoch rev:            6893
Checksum:              329

/EX
SB KEPS @ AMSAT  $ORB06264.M
Orbital Elements  06264.MISC

HR AMSAT ORBITAL ELEMENTS FOR MANNED AND MISCELLANEOUS SATELLITES
FROM WA5QGD FORT WORTH,TX September 21, 2006
Send SUBSCRIBE KEPS/UNSUBSCRIBE KEPS to majordomo at amsat.org only
BID: ORB06264.M
TO ALL RADIO AMATEURS BT

Satellite: HUBBLE
Catalog number: 20580
Epoch time:      06264.76771594
Element set:     702
Inclination:      028.4673 deg
RA of node:       140.2757 deg
Eccentricity:    0.0003849
Arg of perigee:   132.2722 deg
Mean anomaly:     227.8193 deg
Mean motion:   15.00096675 rev/day
Decay rate:       4.66e-06 rev/day^2
Epoch rev:           69961
Checksum:              314

Satellite: UARS
Catalog number: 21701
Epoch time:      06264.45081448
Element set:     874
Inclination:      056.9760 deg
RA of node:       037.2468 deg
Eccentricity:    0.0104141
Arg of perigee:   037.3700 deg
Mean anomaly:     323.4537 deg
Mean motion:   15.44678887 rev/day
Decay rate:      5.577e-05 rev/day^2
Epoch rev:           82417
Checksum:              315

Satellite: PO-34
Catalog number: 25520
Epoch time:      06264.15110959
Element set:     566
Inclination:      028.4583 deg
RA of node:       109.1043 deg
Eccentricity:    0.0005668
Arg of perigee:   203.0976 deg
Mean anomaly:     156.9363 deg
Mean motion:   15.16792695 rev/day
Decay rate:       5.54e-06 rev/day^2
Epoch rev:           43663
Checksum:              317

Satellite: ISS
Catalog number: 25544
Epoch time:      06264.94025581
Element set:     715
Inclination:      051.6356 deg
RA of node:       049.0536 deg
Eccentricity:    0.0012123
Arg of perigee:   011.5444 deg
Mean anomaly:     081.6974 deg
Mean motion:   15.76014342 rev/day
Decay rate:     2.0120e-04 rev/day^2
Epoch rev:           44842
Checksum:              268

Satellite: OO-38
Catalog number: 26063
Epoch time:      06263.90351025
Element set:     722
Inclination:      100.1924 deg
RA of node:       212.1924 deg
Eccentricity:    0.0036761
Arg of perigee:   197.2871 deg
Mean anomaly:     162.7058 deg
Mean motion:   14.35777506 rev/day
Decay rate:        1.0e-08 rev/day^2
Epoch rev:           34840
Checksum:              283

Satellite: NO-45
Catalog number: 26932
Epoch time:      06264.07547087
Element set:     414
Inclination:      067.0527 deg
RA of node:       120.4135 deg
Eccentricity:    0.0006706
Arg of perigee:   235.6372 deg
Mean anomaly:     124.4093 deg
Mean motion:   14.29535116 rev/day
Decay rate:       -4.8e-07 rev/day^2
Epoch rev:           25967
Checksum:              299

Satellite: UWE-1
Catalog number: 28892
Epoch time:      06264.25340597
Element set:     556
Inclination:      098.1506 deg
RA of node:       160.8588 deg
Eccentricity:    0.0016460
Arg of perigee:   230.7728 deg
Mean anomaly:     129.2012 deg
Mean motion:   14.59396439 rev/day
Decay rate:        9.4e-07 rev/day^2
Epoch rev:            4798
Checksum:              332

Satellite: CO-58
Catalog number: 28895
Epoch time:      06264.17261139
Element set:     540
Inclination:      098.1529 deg
RA of node:       160.8927 deg
Eccentricity:    0.0017024
Arg of perigee:   230.7112 deg
Mean anomaly:     129.2595 deg
Mean motion:   14.59447231 rev/day
Decay rate:       1.72e-06 rev/day^2
Epoch rev:            4785
Checksum:              316

