NOAA-18
1 28654U 05018A   06264.29330891 -.00000083  00000-0 -22153-4 0  6438
2 28654 098.7934 205.5386 0014053 313.2448 046.7563 14.10992196 68933
HUBBLE
1 20580U 90037B   06264.76771594  .00000466  00000-0  23464-4 0  7029
2 20580 028.4673 140.2757 0003849 132.2722 227.8193 15.00096675699618
UARS
1 21701U 91063B   06264.45081448  .00005577  00000-0  10452-3 0  8743
2 21701 056.9760 037.2468 0104141 037.3700 323.4537 15.44678887824174
PO-34
1 25520U 98064B   06264.15110959  .00000554  00000-0  17672-4 0  5661
2 25520 028.4583 109.1043 0005668 203.0976 156.9363 15.16792695436632
ISS
1 25544U 98067A   06264.94025581  .00020120  00000-0  12994-3 0  7151
2 25544 051.6356 049.0536 0012123 011.5444 081.6974 15.76014342448423
OO-38
1 26063U 00004C   06263.90351025  .00000001  00000-0  20728-4 0  7221
2 26063 100.1924 212.1924 0036761 197.2871 162.7058 14.35777506348408
NO-45
1 26932U 01043D   06264.07547087 -.00000048  00000-0  13456-4 0  4144
2 26932 067.0527 120.4135 0006706 235.6372 124.4093 14.29535116259673
UWE-1
1 28892U 05043C   06264.25340597  .00000094  00000-0  29561-4 0  5563
2 28892 098.1506 160.8588 0016460 230.7728 129.2012 14.59396439 47980
CO-58
1 28895U 05043F   06264.17261139  .00000172  00000-0  45979-4 0  5402
2 28895 098.1529 160.8927 0017024 230.7112 129.2595 14.59447231 47858
